GSAT0101 (GALILEO-PFM)  
1 37846U 11060A   25060.06079426 -.00000084  00000+0  00000+0 0  9994
2 37846  57.1140 354.5841 0004142 343.0067  16.9840  1.70475553 83053
GSAT0102 (GALILEO-FM2)  
1 37847U 11060B   25059.11047795 -.00000082  00000+0  00000+0 0  9991
2 37847  57.1127 354.6102 0005451 335.3568 206.6972  1.70475719 83041
GSAT0103 (GALILEO-FM3)  
1 38857U 12055A   25061.27371686  .00000025  00000+0  00000+0 0  9993
2 38857  55.5293 114.5086 0006052 272.8521  87.1685  1.70473421 76969
GSAT0201 (GALILEO 5)    
1 40128U 14050A   25059.64698628 -.00000013  00000+0  00000+0 0  9998
2 40128  49.3877 292.7209 1621143 161.1013 205.7121  1.85519637 69533
GSAT0202 (GALILEO 6)    
1 40129U 14050B   25060.44327730 -.00000017  00000+0  00000+0 0  9996
2 40129  49.4029 291.7688 1620890 161.9134 204.6187  1.85520347 71717
GSAT0203 (GALILEO 7)    
1 40544U 15017A   25061.01276257 -.00000087  00000+0  00000+0 0  9999
2 40544  56.9059 354.4574 0004661 291.9904  67.9666  1.70475386 61150
GSAT0204 (GALILEO 8)    
1 40545U 15017B   25061.26755611 -.00000087  00000+0  00000+0 0  9993
2 40545  56.9122 354.4670 0004226 281.5481  78.4114  1.70475279 24202
GSAT0205 (GALILEO 9)    
1 40889U 15045A   25057.51650992  .00000066  00000+0  00000+0 0  9990
2 40889  55.1114 234.7412 0006213  47.9432 312.0913  1.70473560 58906
GSAT0206 (GALILEO 10)   
1 40890U 15045B   25060.67001490  .00000049  00000+0  00000+0 0  9997
2 40890  55.1094 234.6492 0003947  50.8064 309.1899  1.70473511 58981
GSAT0209 (GALILEO 12)   
1 41174U 15079A   25060.83886949  .00000027  00000+0  00000+0 0  9994
2 41174  55.5487 114.2320 0004496 312.6408  47.4132  1.70474744 56722
GSAT0208 (GALILEO 11)   
1 41175U 15079B   25060.47222720  .00000029  00000+0  00000+0 0  9998
2 41175  55.5466 114.2396 0003844 311.0044  49.0554  1.70474496 57134
GSAT0211 (GALILEO 14)   
1 41549U 16030A   25060.00918620  .00000051  00000+0  00000+0 0  9996
2 41549  55.2585 234.7065 0003585  25.6327 334.3490  1.70473594 54609
